{
    "links": {
        "self": "http://www.neowsapp.com/rest/v1/neo/3837974?api_key=iIulBulltgU6a56xZRHN4H3l9WmuAYTsLGpBGhQ2"
    },
    "id": "3837974",
    "neo_reference_id": "3837974",
    "name": "(2019 BQ1)",
    "designation": "2019 BQ1",
    "nasa_jpl_url": "http://ssd.jpl.nasa.gov/sbdb.cgi?sstr=3837974",
    "absolute_magnitude_h": 25.4,
    "estimated_diameter": {
        "kilometers": {
            "estimated_diameter_min": 0.022108281,
            "estimated_diameter_max": 0.0494356193
        },
        "meters": {
            "estimated_diameter_min": 22.1082810359,
            "estimated_diameter_max": 49.435619262
        },
        "miles": {
            "estimated_diameter_min": 0.0137374447,
            "estimated_diameter_max": 0.0307178602
        },
        "feet": {
            "estimated_diameter_min": 72.5337327539,
            "estimated_diameter_max": 162.1903570994
        }
    },
    "is_potentially_hazardous_asteroid": false,
    "close_approach_data": [
        {
            "close_approach_date": "1956-01-12",
            "close_approach_date_full": "1956-Jan-12 03:41",
            "epoch_date_close_approach": -440885940000,
            "relative_velocity": {
                "kilometers_per_second": "3.6210883164",
                "kilometers_per_hour": "13035.9179390381",
                "miles_per_hour": "8100.012454954"
            },
            "miss_distance": {
                "astronomical": "0.0557304088",
                "lunar": "21.6791290232",
                "kilometers": "8337150.450709256",
                "miles": "5180465.0687134928"
            },
            "orbiting_body": "Earth"
        },
        {
            "close_approach_date": "1976-10-30",
            "close_approach_date_full": "1976-Oct-30 00:50",
            "epoch_date_close_approach": 215484600000,
            "relative_velocity": {
                "kilometers_per_second": "10.3039706538",
                "kilometers_per_hour": "37094.2943536537",
                "miles_per_hour": "23048.9519554689"
            },
            "miss_distance": {
                "astronomical": "0.0519037146",
                "lunar": "20.1905449794",
                "kilometers": "7764685.149247902",
                "miles": "4824751.6250369676"
            },
            "orbiting_body": "Mars"
        },
        {
            "close_approach_date": "2007-08-12",
            "close_approach_date_full": "2007-Aug-12 04:23",
            "epoch_date_close_approach": 1186892580000,
            "relative_velocity": {
                "kilometers_per_second": "9.2017001492",
                "kilometers_per_hour": "33126.1205370388",
                "miles_per_hour": "20583.283063695"
            },
            "miss_distance": {
                "astronomical": "0.047507351",
                "lunar": "18.480359539",
                "kilometers": "7106998.51894237",
                "miles": "4416084.103129906"
            },
            "orbiting_body": "Mars"
        },
        {
            "close_approach_date": "2019-01-28",
            "close_approach_date_full": "2019-Jan-28 12:25",
            "epoch_date_close_approach": 1548678300000,
            "relative_velocity": {
                "kilometers_per_second": "3.9905370857",
                "kilometers_per_hour": "14365.9335086679",
                "miles_per_hour": "8926.4324070942"
            },
            "miss_distance": {
                "astronomical": "0.0592598135",
                "lunar": "23.0520674515",
                "kilometers": "8865141.876197245",
                "miles": "5508543.727302181"
            },
            "orbiting_body": "Earth"
        },
        {
            "close_approach_date": "2085-12-20",
            "close_approach_date_full": "2085-Dec-20 06:50",
            "epoch_date_close_approach": 3659669400000,
            "relative_velocity": {
                "kilometers_per_second": "8.1395264715",
                "kilometers_per_hour": "29302.2952974369",
                "miles_per_hour": "18207.3067641213"
            },
            "miss_distance": {
                "astronomical": "0.1749945122",
                "lunar": "68.0728652458",
                "kilometers": "26178806.286809014",
                "miles": "16266755.9271278332"
            },
            "orbiting_body": "Earth"
        }
    ],
    "orbital_data": {
        "orbit_id": "5",
        "orbit_determination_date": "2019-02-28 06:55:47",
        "first_observation_date": "2019-01-24",
        "last_observation_date": "2019-02-28",
        "data_arc_in_days": 35,
        "observations_used": 45,
        "orbit_uncertainty": "7",
        "minimum_orbit_intersection": ".0520434",
        "jupiter_tisserand_invariant": "4.465",
        "epoch_osculation": "2459000.5",
        "eccentricity": ".3198535949191884",
        "semi_major_axis": "1.510537568303975",
        "inclination": "1.816260155340752",
        "ascending_node_longitude": ".3967807553565612",
        "orbital_period": "678.1030899783271",
        "perihelion_distance": "1.02738669682146",
        "perihelion_argument": "115.6013284439405",
        "aphelion_distance": "1.99368843978649",
        "perihelion_time": "2459180.519774782873",
        "mean_anomaly": "264.4288104867574",
        "mean_motion": ".5308927290266527",
        "equinox": "J2000",
        "orbit_class": {
            "orbit_class_type": "AMO",
            "orbit_class_description": "Near-Earth asteroid orbits similar to that of 1221 Amor",
            "orbit_class_range": "1.017 AU < q (perihelion) < 1.3 AU"
        }
    },
    "is_sentry_object": false
}